ONEWEB-0593             
1 54659U 22166T   23287.47308548  .00000657  00000+0  15612-2 0  9991
2 54659  87.9200  78.4247 0001806 101.0570 259.0768 13.21775355 42516
ONEWEB-0594             
1 54660U 22166U   23287.79479395  .00000372  00000+0  87077-3 0  9996
2 54660  87.9195  78.3577 0001839  86.5713 273.5631 13.21777243 43034
ONEWEB-0595             
1 54661U 22166V   23287.46931004 -.00000044  00000+0 -13870-3 0  9999
2 54661  87.9193  78.4156 0001402  85.4668 274.6626 13.21581637 42507
ONEWEB-0596             
1 54662U 22166W   23287.44338173 -.00000513  00000+0 -12734-2 0  9994
2 54662  87.9195  78.4217 0001612 109.4733 250.6576 13.21877294 42506
ONEWEB-0597             
1 54663U 22166X   23287.42445877 -.00000531  00000+0 -13169-2 0  9996
2 54663  87.9194  78.4265 0001963 102.9802 257.1551 13.21876872 42509
ONEWEB-0600             
1 54664U 22166Y   23287.48194006 -.00000061  00000+0 -17930-3 0  9997
2 54664  87.9199  78.4650 0001929  97.1197 263.0156 13.21578412 42480
ONEWEB-0601             
1 54665U 22166Z   23287.47431847  .00000019  00000+0  15357-4 0  9997
2 54665  87.9196  78.4165 0001500 110.6720 249.4575 13.21683514 42671
ONEWEB-0602             
1 54666U 22166AA  23287.81929351  .00000869  00000+0  20654-2 0  9995
2 54666  87.9194  78.3537 0001832 101.1603 258.9737 13.22055861 43030
